BLUEBON                 
1 62688U 25009CH  26068.70316231  .00010452  00000+0  37313-3 0  9992
2 62688  97.4017 152.2033 0001193  43.3900 316.7434 15.29047253 63767
STARLINK-34043          
1 63823U 25092V   26068.31410749  .00035818  00000+0  13040-2 0  9995
2 63823  42.9973 170.6146 0002465 292.0007  68.0583 15.27600198 48607
