[{"OBJECT_NAME":"BLUEBON","OBJECT_ID":"2025-009CH","EPOCH":"2026-03-09T16:52:33.225312","MEAN_MOTION":15.29047254,"ECCENTRICITY":0.00011933,"INCLINATION":97.4017,"RA_OF_ASC_NODE":152.2033,"ARG_OF_PERICENTER":43.39,"MEAN_ANOMALY":316.7434,"EPHEMERIS_TYPE":0,"CLASSIFICATION_TYPE":"U","NORAD_CAT_ID":62688,"ELEMENT_SET_NO":999,"REV_AT_EPOCH":6376,"BSTAR":0.00037313027,"MEAN_MOTION_DOT":0.00010452,"MEAN_MOTION_DDOT":0},{"OBJECT_NAME":"STARLINK-34043","OBJECT_ID":"2025-092V","EPOCH":"2026-03-09T07:32:18.887136","MEAN_MOTION":15.27600198,"ECCENTRICITY":0.00024654,"INCLINATION":42.9973,"RA_OF_ASC_NODE":170.6146,"ARG_OF_PERICENTER":292.0007,"MEAN_ANOMALY":68.0583,"EPHEMERIS_TYPE":0,"CLASSIFICATION_TYPE":"U","NORAD_CAT_ID":63823,"ELEMENT_SET_NO":999,"REV_AT_EPOCH":4860,"BSTAR":0.0013039618,"MEAN_MOTION_DOT":0.00035818,"MEAN_MOTION_DDOT":0}]
